WORLDVIEW-1 (WV-1)      
1 32060U 07041A   26196.91141576  .00003198  00000+0  13275-3 0  9992
2 32060  97.3907 316.2522 0001593 202.9820 157.1347 15.24563308 47253
WORLDVIEW-2 (WV-2)      
1 35946U 09055A   26196.90276241  .00000042  00000+0  28367-4 0  9996
2 35946  98.4756 269.9614 0005342 128.1106 232.0564 14.37907022879773
WORLDVIEW-3 (WV-3)      
1 40115U 14048A   26196.87094660  .00000388  00000+0  51721-4 0  9990
2 40115  97.8556 271.3068 0001352 154.8862 205.2419 14.85064838646168
